[Satellite]
VERSION=1.1
NAME=MOLNIYA 1-40
NICKNAME=MOLNIYA 1-40
TLE1=1 10925U 78055A   19317.18879418  .00000890  00000-0 -84159-2 0  9996
TLE2=2 10925  62.4283 173.9558 7040820 277.7001  14.1610  2.00546486303719
STATUS=0
